{
  "type": "FeatureCollection",
  "features": [
    {
      "type": "Feature",
      "properties": {
        "name": "Sample Major Canal A",
        "office": "test",
        "note": "APPROXIMATE demo geometry, not a surveyed canal"
      },
      "geometry": {
        "type": "LineString",
        "coordinates": [
          [
            33.45,
            14.42
          ],
          [
            33.38,
            14.47
          ],
          [
            33.3,
            14.52
          ],
          [
            33.22,
            14.57
          ],
          [
            33.14,
            14.61
          ],
          [
            33.06,
            14.65
          ]
        ]
      }
    },
    {
      "type": "Feature",
      "properties": {
        "name": "Sample Major Canal B",
        "office": "test",
        "note": "APPROXIMATE demo geometry"
      },
      "geometry": {
        "type": "LineString",
        "coordinates": [
          [
            33.48,
            14.35
          ],
          [
            33.4,
            14.31
          ],
          [
            33.32,
            14.27
          ],
          [
            33.24,
            14.24
          ],
          [
            33.16,
            14.2
          ]
        ]
      }
    }
  ]
}