{
 "type": "FeatureCollection",
 "features": [
  {
   "type": "Feature",
   "properties": {
    "canal": "Minor Canal 1"
   },
   "geometry": {
    "type": "Polygon",
    "coordinates": [
     [
      [
       35.66136,
       15.46984
      ],
      [
       35.68472,
       15.45575
      ],
      [
       35.70735,
       15.44276
      ],
      [
       35.72927,
       15.42994
      ],
      [
       35.75028,
       15.41648
      ],
      [
       35.76997,
       15.40221
      ],
      [
       35.74413,
       15.36659
      ],
      [
       35.7255,
       15.38012
      ],
      [
       35.70631,
       15.3924
      ],
      [
       35.68529,
       15.40468
      ],
      [
       35.6624,
       15.41783
      ],
      [
       35.63864,
       15.43216
      ],
      [
       35.66136,
       15.46984
      ]
     ]
    ]
   }
  },
  {
   "type": "Feature",
   "properties": {
    "canal": "Minor Canal 2"
   },
   "geometry": {
    "type": "Polygon",
    "coordinates": [
     [
      [
       35.69588,
       15.42123
      ],
      [
       35.71866,
       15.39747
      ],
      [
       35.74079,
       15.37471
      ],
      [
       35.76196,
       15.35208
      ],
      [
       35.78197,
       15.32887
      ],
      [
       35.80072,
       15.30496
      ],
      [
       35.7661,
       15.27782
      ],
      [
       35.74799,
       15.30093
      ],
      [
       35.72924,
       15.32266
      ],
      [
       35.70895,
       15.34433
      ],
      [
       35.687,
       15.36691
      ],
      [
       35.66412,
       15.39077
      ],
      [
       35.69588,
       15.42123
      ]
     ]
    ]
   }
  },
  {
   "type": "Feature",
   "properties": {
    "canal": "Minor Canal 3"
   },
   "geometry": {
    "type": "Polygon",
    "coordinates": [
     [
      [
       35.71987,
       15.38066
      ],
      [
       35.74615,
       15.36748
      ],
      [
       35.77166,
       15.35543
      ],
      [
       35.79643,
       15.34361
      ],
      [
       35.82034,
       15.33121
      ],
      [
       35.84295,
       15.31793
      ],
      [
       35.82067,
       15.27999
      ],
      [
       35.79906,
       15.29269
      ],
      [
       35.77685,
       15.30421
      ],
      [
       35.7528,
       15.31567
      ],
      [
       35.72687,
       15.32792
      ],
      [
       35.70013,
       15.34134
      ],
      [
       35.71987,
       15.38066
      ]
     ]
    ]
   }
  },
  {
   "type": "Feature",
   "properties": {
    "canal": "Minor Canal 4"
   },
   "geometry": {
    "type": "Polygon",
    "coordinates": [
     [
      [
       35.75717,
       15.32976
      ],
      [
       35.77891,
       15.30263
      ],
      [
       35.8,
       15.27648
      ],
      [
       35.82008,
       15.25045
      ],
      [
       35.83892,
       15.22388
      ],
      [
       35.85654,
       15.19665
      ],
      [
       35.8196,
       15.17275
      ],
      [
       35.8025,
       15.1992
      ],
      [
       35.78472,
       15.22427
      ],
      [
       35.76546,
       15.24922
      ],
      [
       35.74461,
       15.27507
      ],
      [
       35.72283,
       15.30224
      ],
      [
       35.75717,
       15.32976
      ]
     ]
    ]
   }
  },
  {
   "type": "Feature",
   "properties": {
    "canal": "Minor Canal 5"
   },
   "geometry": {
    "type": "Polygon",
    "coordinates": [
     [
      [
       35.78304,
       15.28872
      ],
      [
       35.80815,
       15.27023
      ],
      [
       35.83257,
       15.25282
      ],
      [
       35.85615,
       15.23557
      ],
      [
       35.87871,
       15.21772
      ],
      [
       35.89998,
       15.19908
      ],
      [
       35.87096,
       15.166
      ],
      [
       35.85055,
       15.18392
      ],
      [
       35.82953,
       15.20055
      ],
      [
       35.80681,
       15.21714
      ],
      [
       35.78233,
       15.23461
      ],
      [
       35.75696,
       15.25328
      ],
      [
       35.78304,
       15.28872
      ]
     ]
    ]
   }
  },
  {
   "type": "Feature",
   "properties": {
    "canal": "Minor Canal 6"
   },
   "geometry": {
    "type": "Polygon",
    "coordinates": [
     [
      [
       35.81394,
       15.24473
      ],
      [
       35.82819,
       15.22465
      ],
      [
       35.84187,
       15.20543
      ],
      [
       35.85461,
       15.18612
      ],
      [
       35.86609,
       15.16621
      ],
      [
       35.87625,
       15.14586
      ],
      [
       35.83687,
       15.12622
      ],
      [
       35.82731,
       15.14541
      ],
      [
       35.81719,
       15.16298
      ],
      [
       35.80559,
       15.18053
      ],
      [
       35.79233,
       15.19917
      ],
      [
       35.77806,
       15.21927
      ],
      [
       35.81394,
       15.24473
      ]
     ]
    ]
   }
  },
  {
   "type": "Feature",
   "properties": {
    "canal": "Minor Canal 7"
   },
   "geometry": {
    "type": "Polygon",
    "coordinates": [
     [
      [
       35.82454,
       15.22751
      ],
      [
       35.84935,
       15.20565
      ],
      [
       35.87347,
       15.18485
      ],
      [
       35.89671,
       15.16419
      ],
      [
       35.91882,
       15.14294
      ],
      [
       35.93967,
       15.12095
      ],
      [
       35.90773,
       15.09069
      ],
      [
       35.8876,
       15.11194
      ],
      [
       35.86685,
       15.13187
      ],
      [
       35.84449,
       15.15175
      ],
      [
       35.82043,
       15.17249
      ],
      [
       35.79546,
       15.19449
      ],
      [
       35.82454,
       15.22751
      ]
     ]
    ]
   }
  }
 ]
}