{
 "type": "FeatureCollection",
 "features": [
  {
   "type": "Feature",
   "properties": {
    "name": "Field 1"
   },
   "geometry": {
    "type": "Polygon",
    "coordinates": [
     [
      [
       33.1,
       14.42
      ],
      [
       33.106,
       14.42
      ],
      [
       33.106,
       14.426
      ],
      [
       33.1,
       14.426
      ],
      [
       33.1,
       14.42
      ]
     ]
    ]
   }
  },
  {
   "type": "Feature",
   "properties": {
    "name": "Field 2"
   },
   "geometry": {
    "type": "Polygon",
    "coordinates": [
     [
      [
       33.14,
       14.45
      ],
      [
       33.146,
       14.45
      ],
      [
       33.146,
       14.456
      ],
      [
       33.14,
       14.456
      ],
      [
       33.14,
       14.45
      ]
     ]
    ]
   }
  },
  {
   "type": "Feature",
   "properties": {
    "name": "Field 3"
   },
   "geometry": {
    "type": "Polygon",
    "coordinates": [
     [
      [
       33.19,
       14.39
      ],
      [
       33.196,
       14.39
      ],
      [
       33.196,
       14.396
      ],
      [
       33.19,
       14.396
      ],
      [
       33.19,
       14.39
      ]
     ]
    ]
   }
  },
  {
   "type": "Feature",
   "properties": {
    "name": "Field 4"
   },
   "geometry": {
    "type": "Polygon",
    "coordinates": [
     [
      [
       33.23,
       14.47
      ],
      [
       33.236,
       14.47
      ],
      [
       33.236,
       14.476
      ],
      [
       33.23,
       14.476
      ],
      [
       33.23,
       14.47
      ]
     ]
    ]
   }
  }
 ]
}